STARLINK-4663           
1 53724U 22107AA  26068.73718069  .00002703  00000+0  18784-3 0  9998
2 53724  53.2175 253.7051 0001233  93.3528 266.7605 15.08839925194420
LEMUR-2-AHMED-ASRAR     
1 60576U 24149DN  26068.73265438  .00013045  00000+0  79773-3 0  9992
2 60576  97.7021 152.9847 0001633  18.5035 341.6253 15.10376432 85541
